OBJECT B                
1 51825U 22019B   26011.94796752  .00045366  00000+0  67118-3 0  9993
2 51825  97.3635  97.3965 0007470 346.0782  14.0265 15.55140841215339
